H1 CPF 01  gfz 2021 09 17 00  7593 terrasarx 
H2 0702601  6201 31698    2021 09 16 12 59 42 2021 09 21 00 00 42   120 1 1  0 0 0
H9
10 0 59477  82062.000000  0    1303407.586  -1150719.733  -6672235.813
10 0 59477  82182.000000  0    1530665.722  -2003321.041  -6417516.639
10 0 59477  82302.000000  0    1716750.014  -2824823.066  -6050791.333
10 0 59477  82422.000000  0    1859089.425  -3600210.231  -5578384.379
10 0 59477  82542.000000  0    1956118.611  -4315201.174  -5008461.615
10 0 59477  82662.000000  0    2007292.306  -4956513.196  -4350898.472
10 0 59477  82782.000000  0    2013078.981  -5512113.072  -3617120.044
10 0 59477  82902.000000  0    1974933.266  -5971451.745  -2819912.001
10 0 59477  83022.000000  0    1895246.730  -6325675.919  -1973203.762
10 0 59477  83142.000000  0    1777278.077  -6567809.555  -1091826.358
10 0 59477  83262.000000  0    1625065.269  -6692902.527   -191251.604
10 0 59477  83382.000000  0    1443320.605  -6698139.563    712686.519
10 0 59477  83502.000000  0    1237310.674  -6582907.054   1604076.418
10 0 59477  83622.000000  0    1012724.666  -6348817.116   2467219.529
10 0 59477  83742.000000  0     775534.842  -5999683.317   3286915.971
10 0 59477  83862.000000  0     531851.177  -5541453.334   4048738.782
10 0 59477  83982.000000  0     287775.791  -4982100.124   4739291.709
10 0 59477  84102.000000  0      49259.986  -4331473.910   5346446.544
10 0 59477  84222.000000  0    -178032.216  -3601118.624   5859554.920
10 0 59477  84342.000000  0    -388850.626  -2804057.041   6269631.673
10 0 59477  84462.000000  0    -578473.946  -1954550.680   6569504.856
10 0 59477  84582.000000  0    -742810.551  -1067841.574   6753934.285
10 0 59477  84702.000000  0    -878483.323   -159877.219   6819698.967
10 0 59477  84822.000000  0    -982897.575    752977.194   6765650.428
10 0 59477  84942.000000  0   -1054290.030   1654233.516   6592731.283
10 0 59477  85062.000000  0   -1091758.234   2527577.738   6303959.697
10 0 59477  85182.000000  0   -1095270.785   3357165.184   5904380.159
10 0 59477  85302.000000  0   -1065658.126   4127909.849   5400980.463
10 0 59477  85422.000000  0   -1004583.041   4825762.280   4802575.557
10 0 59477  85542.000000  0    -914492.928   5437972.879   4119659.317
10 0 59477  85662.000000  0    -798553.038   5953332.850   3364223.550
10 0 59477  85782.000000  0    -660563.983   6362388.773   2549551.774
10 0 59477  85902.000000  0    -504863.930   6657628.935   1689983.422
10 0 59477  86022.000000  0    -336216.020   6833628.851    800655.873
10 0 59477  86142.000000  0    -159686.035   6887156.727   -102768.378
10 0 59477  86262.000000  0      19487.171   6817236.383  -1004385.800
10 0 59477  86382.000000  0     196025.351   6625163.443  -1888342.243
99
